YAOGAN-36 04C           
1 54750U 22171E   26068.78871400  .00016196  00000+0  54592-3 0  9991
2 54750  34.9797  96.6578 0006685 275.3761  84.6192 15.29852307180246
STARLINK-31212          
1 58875U 24019Y   26068.54005656 -.00001980  00000+0 -62491-4 0  9997
2 58875  42.9981 249.4121 0000863 255.9308 104.1448 15.27568832119044
